2025-313AG              
1 67278U 25313AG  26009.65780482  .00007033  00000+0  32746-3 0  9998
2 67278  97.4094  86.9163 0013923 197.8826 162.1921 15.20143318  1851
GALAPAGOS-UTE-SWSU      
1 67279U 25313AH  26009.52580766  .00008161  00000+0  37863-3 0  9996
2 67279  97.4105  86.7890 0014497 195.1521 164.9283 15.20206539  1823
2025-313AJ              
1 67280U 25313AJ  26009.65463335  .00006034  00000+0  27845-3 0  9990
2 67280  97.4175  86.9205 0013387 191.3663 168.7272 15.20521734  1845
2025-313AK              
1 67281U 25313AK  26009.65391717  .00006204  00000+0  28554-3 0  9992
2 67281  97.4058  86.9139 0012125 190.0412 170.0583 15.20613268  1844
2025-313AL              
1 67282U 25313AL  26009.65107183  .00006404  00000+0  29154-3 0  9994
2 67282  97.4107  86.9134 0010897 188.7268 171.3780 15.20990297  1845
2025-313AM              
1 67283U 25313AM  26009.65068156  .00009634  00000+0  43559-3 0  9994
2 67283  97.4115  86.9155 0010824 188.7059 171.3991 15.21087658  1849
2025-313AN              
1 67284U 25313AN  26009.65103296  .00004112  00000+0  18853-3 0  9995
2 67284  97.4102  86.9122 0010748 188.7937 171.3112 15.20958976  1844
2025-313AP              
1 67285U 25313AP  26009.65010277  .00009258  00000+0  41796-3 0  9990
2 67285  97.4092  86.9119 0010431 190.2468 169.8556 15.21155977  1840
2025-313AQ              
1 67286U 25313AQ  26009.51811613  .00008309  00000+0  37511-3 0  9995
2 67286  97.4114  86.7952 0010126 186.7294 173.3808 15.21192148  1826
LUCA                    
1 67287U 25313AR  26009.45203659  .00011228  00000+0  50460-3 0  9996
2 67287  97.4111  86.7310 0010043 187.3752 172.7338 15.21261809  1817
2025-313AS              
1 67288U 25313AS  26009.64973104  .00006414  00000+0  29047-3 0  9995
2 67288  97.4103  86.9220 0011867 179.4485 180.6766 15.21159506  1847
2025-313AT              
1 67289U 25313AT  26009.78037695  .00012616  00000+0  56433-3 0  9997
2 67289  97.4114  87.0560 0009997 186.7711 173.3391 15.21390699  1868
