CCSDS_OMM_VERS = 2.0
CREATION_DATE  = 
ORIGINATOR     = 

OBJECT_NAME    = 2025-313AG
OBJECT_ID      = 2025-313AG
CENTER_NAME    = EARTH
REF_FRAME      = TEME
TIME_SYSTEM    = UTC
MEAN_ELEMENT_THEORY = SGP/SGP4

EPOCH          = 2026-01-09T15:47:14.336448
MEAN_MOTION    = 15.20143318
ECCENTRICITY   = .00139236
INCLINATION    = 97.4094
RA_OF_ASC_NODE = 86.9163
ARG_OF_PERICENTER = 197.8826
MEAN_ANOMALY   = 162.1921

EPHEMERIS_TYPE = 0
CLASSIFICATION_TYPE = U
NORAD_CAT_ID   = 67278
ELEMENT_SET_NO = 999
REV_AT_EPOCH   = 185
BSTAR          = .32746403E-3
MEAN_MOTION_DOT = .7033E-4
MEAN_MOTION_DDOT = 0

CCSDS_OMM_VERS = 2.0
CREATION_DATE  = 
ORIGINATOR     = 

OBJECT_NAME    = GALAPAGOS-UTE-SWSU
OBJECT_ID      = 2025-313AH
CENTER_NAME    = EARTH
REF_FRAME      = TEME
TIME_SYSTEM    = UTC
MEAN_ELEMENT_THEORY = SGP/SGP4

EPOCH          = 2026-01-09T12:37:09.781824
MEAN_MOTION    = 15.20206539
ECCENTRICITY   = .00144977
INCLINATION    = 97.4105
RA_OF_ASC_NODE = 86.7890
ARG_OF_PERICENTER = 195.1521
MEAN_ANOMALY   = 164.9283

EPHEMERIS_TYPE = 0
CLASSIFICATION_TYPE = U
NORAD_CAT_ID   = 67279
ELEMENT_SET_NO = 999
REV_AT_EPOCH   = 182
BSTAR          = .3786273E-3
MEAN_MOTION_DOT = .8161E-4
MEAN_MOTION_DDOT = 0

CCSDS_OMM_VERS = 2.0
CREATION_DATE  = 
ORIGINATOR     = 

OBJECT_NAME    = 2025-313AJ
OBJECT_ID      = 2025-313AJ
CENTER_NAME    = EARTH
REF_FRAME      = TEME
TIME_SYSTEM    = UTC
MEAN_ELEMENT_THEORY = SGP/SGP4

EPOCH          = 2026-01-09T15:42:40.321440
MEAN_MOTION    = 15.20521734
ECCENTRICITY   = .00133876
INCLINATION    = 97.4175
RA_OF_ASC_NODE = 86.9205
ARG_OF_PERICENTER = 191.3663
MEAN_ANOMALY   = 168.7272

EPHEMERIS_TYPE = 0
CLASSIFICATION_TYPE = U
NORAD_CAT_ID   = 67280
ELEMENT_SET_NO = 999
REV_AT_EPOCH   = 184
BSTAR          = .27844899E-3
MEAN_MOTION_DOT = .6034E-4
MEAN_MOTION_DDOT = 0

CCSDS_OMM_VERS = 2.0
CREATION_DATE  = 
ORIGINATOR     = 

OBJECT_NAME    = 2025-313AK
OBJECT_ID      = 2025-313AK
CENTER_NAME    = EARTH
REF_FRAME      = TEME
TIME_SYSTEM    = UTC
MEAN_ELEMENT_THEORY = SGP/SGP4

EPOCH          = 2026-01-09T15:41:38.443488
MEAN_MOTION    = 15.20613268
ECCENTRICITY   = .00121259
INCLINATION    = 97.4058
RA_OF_ASC_NODE = 86.9139
ARG_OF_PERICENTER = 190.0412
MEAN_ANOMALY   = 170.0583

EPHEMERIS_TYPE = 0
CLASSIFICATION_TYPE = U
NORAD_CAT_ID   = 67281
ELEMENT_SET_NO = 999
REV_AT_EPOCH   = 184
BSTAR          = .28553663E-3
MEAN_MOTION_DOT = .6204E-4
MEAN_MOTION_DDOT = 0

CCSDS_OMM_VERS = 2.0
CREATION_DATE  = 
ORIGINATOR     = 

OBJECT_NAME    = 2025-313AL
OBJECT_ID      = 2025-313AL
CENTER_NAME    = EARTH
REF_FRAME      = TEME
TIME_SYSTEM    = UTC
MEAN_ELEMENT_THEORY = SGP/SGP4

EPOCH          = 2026-01-09T15:37:32.606112
MEAN_MOTION    = 15.20990297
ECCENTRICITY   = .00108972
INCLINATION    = 97.4107
RA_OF_ASC_NODE = 86.9134
ARG_OF_PERICENTER = 188.7268
MEAN_ANOMALY   = 171.3780

EPHEMERIS_TYPE = 0
CLASSIFICATION_TYPE = U
NORAD_CAT_ID   = 67282
ELEMENT_SET_NO = 999
REV_AT_EPOCH   = 184
BSTAR          = .29153822E-3
MEAN_MOTION_DOT = .6404E-4
MEAN_MOTION_DDOT = 0

CCSDS_OMM_VERS = 2.0
CREATION_DATE  = 
ORIGINATOR     = 

OBJECT_NAME    = 2025-313AM
OBJECT_ID      = 2025-313AM
CENTER_NAME    = EARTH
REF_FRAME      = TEME
TIME_SYSTEM    = UTC
MEAN_ELEMENT_THEORY = SGP/SGP4

EPOCH          = 2026-01-09T15:36:58.886784
MEAN_MOTION    = 15.21087658
ECCENTRICITY   = .00108249
INCLINATION    = 97.4115
RA_OF_ASC_NODE = 86.9155
ARG_OF_PERICENTER = 188.7059
MEAN_ANOMALY   = 171.3991

EPHEMERIS_TYPE = 0
CLASSIFICATION_TYPE = U
NORAD_CAT_ID   = 67283
ELEMENT_SET_NO = 999
REV_AT_EPOCH   = 184
BSTAR          = .4355929E-3
MEAN_MOTION_DOT = .9634E-4
MEAN_MOTION_DDOT = 0

CCSDS_OMM_VERS = 2.0
CREATION_DATE  = 
ORIGINATOR     = 

OBJECT_NAME    = 2025-313AN
OBJECT_ID      = 2025-313AN
CENTER_NAME    = EARTH
REF_FRAME      = TEME
TIME_SYSTEM    = UTC
MEAN_ELEMENT_THEORY = SGP/SGP4

EPOCH          = 2026-01-09T15:37:29.247744
MEAN_MOTION    = 15.20958976
ECCENTRICITY   = .00107487
INCLINATION    = 97.4102
RA_OF_ASC_NODE = 86.9122
ARG_OF_PERICENTER = 188.7937
MEAN_ANOMALY   = 171.3112

EPHEMERIS_TYPE = 0
CLASSIFICATION_TYPE = U
NORAD_CAT_ID   = 67284
ELEMENT_SET_NO = 999
REV_AT_EPOCH   = 184
BSTAR          = .18853294E-3
MEAN_MOTION_DOT = .4112E-4
MEAN_MOTION_DDOT = 0

CCSDS_OMM_VERS = 2.0
CREATION_DATE  = 
ORIGINATOR     = 

OBJECT_NAME    = 2025-313AP
OBJECT_ID      = 2025-313AP
CENTER_NAME    = EARTH
REF_FRAME      = TEME
TIME_SYSTEM    = UTC
MEAN_ELEMENT_THEORY = SGP/SGP4

EPOCH          = 2026-01-09T15:36:08.879328
MEAN_MOTION    = 15.21155977
ECCENTRICITY   = .0010431
INCLINATION    = 97.4092
RA_OF_ASC_NODE = 86.9119
ARG_OF_PERICENTER = 190.2468
MEAN_ANOMALY   = 169.8556

EPHEMERIS_TYPE = 0
CLASSIFICATION_TYPE = U
NORAD_CAT_ID   = 67285
ELEMENT_SET_NO = 999
REV_AT_EPOCH   = 184
BSTAR          = .417956E-3
MEAN_MOTION_DOT = .9258E-4
MEAN_MOTION_DDOT = 0

CCSDS_OMM_VERS = 2.0
CREATION_DATE  = 
ORIGINATOR     = 

OBJECT_NAME    = 2025-313AQ
OBJECT_ID      = 2025-313AQ
CENTER_NAME    = EARTH
REF_FRAME      = TEME
TIME_SYSTEM    = UTC
MEAN_ELEMENT_THEORY = SGP/SGP4

EPOCH          = 2026-01-09T12:26:05.233632
MEAN_MOTION    = 15.21192148
ECCENTRICITY   = .00101261
INCLINATION    = 97.4114
RA_OF_ASC_NODE = 86.7952
ARG_OF_PERICENTER = 186.7294
MEAN_ANOMALY   = 173.3808

EPHEMERIS_TYPE = 0
CLASSIFICATION_TYPE = U
NORAD_CAT_ID   = 67286
ELEMENT_SET_NO = 999
REV_AT_EPOCH   = 182
BSTAR          = .37511499E-3
MEAN_MOTION_DOT = .8309E-4
MEAN_MOTION_DDOT = 0

CCSDS_OMM_VERS = 2.0
CREATION_DATE  = 
ORIGINATOR     = 

OBJECT_NAME    = LUCA
OBJECT_ID      = 2025-313AR
CENTER_NAME    = EARTH
REF_FRAME      = TEME
TIME_SYSTEM    = UTC
MEAN_ELEMENT_THEORY = SGP/SGP4

EPOCH          = 2026-01-09T10:50:55.961376
MEAN_MOTION    = 15.21261809
ECCENTRICITY   = .00100436
INCLINATION    = 97.4111
RA_OF_ASC_NODE = 86.7310
ARG_OF_PERICENTER = 187.3752
MEAN_ANOMALY   = 172.7338

EPHEMERIS_TYPE = 0
CLASSIFICATION_TYPE = U
NORAD_CAT_ID   = 67287
ELEMENT_SET_NO = 999
REV_AT_EPOCH   = 181
BSTAR          = .50459576E-3
MEAN_MOTION_DOT = .11228E-3
MEAN_MOTION_DDOT = 0

CCSDS_OMM_VERS = 2.0
CREATION_DATE  = 
ORIGINATOR     = 

OBJECT_NAME    = 2025-313AS
OBJECT_ID      = 2025-313AS
CENTER_NAME    = EARTH
REF_FRAME      = TEME
TIME_SYSTEM    = UTC
MEAN_ELEMENT_THEORY = SGP/SGP4

EPOCH          = 2026-01-09T15:35:36.761856
MEAN_MOTION    = 15.21159506
ECCENTRICITY   = .00118674
INCLINATION    = 97.4103
RA_OF_ASC_NODE = 86.9220
ARG_OF_PERICENTER = 179.4485
MEAN_ANOMALY   = 180.6766

EPHEMERIS_TYPE = 0
CLASSIFICATION_TYPE = U
NORAD_CAT_ID   = 67288
ELEMENT_SET_NO = 999
REV_AT_EPOCH   = 184
BSTAR          = .29047042E-3
MEAN_MOTION_DOT = .6414E-4
MEAN_MOTION_DDOT = 0

CCSDS_OMM_VERS = 2.0
CREATION_DATE  = 
ORIGINATOR     = 

OBJECT_NAME    = 2025-313AT
OBJECT_ID      = 2025-313AT
CENTER_NAME    = EARTH
REF_FRAME      = TEME
TIME_SYSTEM    = UTC
MEAN_ELEMENT_THEORY = SGP/SGP4

EPOCH          = 2026-01-09T18:43:44.568480
MEAN_MOTION    = 15.21390699
ECCENTRICITY   = .00099971
INCLINATION    = 97.4114
RA_OF_ASC_NODE = 87.0560
ARG_OF_PERICENTER = 186.7711
MEAN_ANOMALY   = 173.3391

EPHEMERIS_TYPE = 0
CLASSIFICATION_TYPE = U
NORAD_CAT_ID   = 67289
ELEMENT_SET_NO = 999
REV_AT_EPOCH   = 186
BSTAR          = .56432555E-3
MEAN_MOTION_DOT = .12616E-3
MEAN_MOTION_DDOT = 0

